STARLINK-35761          
1 66961U 25288C   26004.16668980  .00040622  00000+0  97564-3 0  9996
2 66961  43.0004  32.8805 0000909 228.5003  49.6871 15.40666443  5431
STARLINK-35874          
1 66962U 25288D   26004.10048280  .00117779  00000+0  19827-2 0  9999
2 66962  43.0005  33.0436 0001293 253.3947 106.6771 15.50588342  5352
STARLINK-36133          
1 66963U 25288E   26004.10013706  .00139407  00000+0  23376-2 0  9991
2 66963  43.0002  33.0410 0001362 255.8653 104.2056 15.50608514  5354
STARLINK-36104          
1 66964U 25288F   26003.39157045  .00186583  00000+0  31071-2 0  9995
2 66964  43.0002  37.1830 0001175 251.1223 108.9510 15.50614564  5246
STARLINK-36067          
1 66965U 25288G   26004.16668980  .00040225  00000+0  96634-3 0  9996
2 66965  43.0009  32.9705 0001375 263.9334 336.9443 15.40662623  5431
STARLINK-36139          
1 66966U 25288H   26003.39054143  .00006042  00000+0  10872-3 0  9990
2 66966  43.0008  37.1755 0001194 265.8729  94.1994 15.50583166  5249
STARLINK-36136          
1 66967U 25288J   26003.45463087  .00048386  00000+0  82795-3 0  9999
2 66967  43.0002  36.7963 0002957 279.5591  80.4935 15.50492784  5256
STARLINK-36152          
1 66968U 25288K   26004.09841046  .00138667  00000+0  23223-2 0  9998
2 66968  43.0006  33.0265 0001256 262.1384  97.9334 15.50646262  5354
STARLINK-36149          
1 66969U 25288L   26004.12780888  .00065127  00000+0  15520-2 0  9990
2 66969  43.0010  33.2519 0000850 287.3634  72.7129 15.40720625  5358
STARLINK-35703          
1 66970U 25288M   26004.09540529  .00129921  00000+0  22138-2 0  9990
2 66970  43.0008  33.0022 0003999 234.0524 125.9966 15.50189168  5350
STARLINK-35678          
1 66971U 25288N   26004.09808089  .00164836  00000+0  27535-2 0  9999
2 66971  43.0010  33.0242 0001273 247.6140 112.4585 15.50612762  5354
STARLINK-34846          
1 66972U 25288P   26004.16668980 -.02080323  00000+0 -43990-1 0  9996
2 66972  43.0003  32.6270 0001486 264.6111 117.7700 15.47826575  5437
